{"type":"FeatureCollection", "features": [
{"type":"Feature","geometry":{"type":"MultiPolygon","coordinates":[[[[89.545,21.8495],[89.5309,21.823],[89.5498,21.7926],[89.5381,21.762],[89.5554,21.7253],[89.5897,21.7136],[89.6051,21.7278],[89.5866,21.7643],[89.6005,21.7749],[89.6037,21.8011],[89.545,21.8495]]],[[[89.6541,21.8574],[89.6606,21.8697],[89.6459,21.8977],[89.6327,21.8865],[89.638,21.8649],[89.6541,21.8574]]],[[[89.6148,21.9467],[89.5884,21.9465],[89.5734,21.9352],[89.5487,21.8757],[89.5562,21.852],[89.6081,21.8109],[89.6183,21.784],[89.6096,21.7648],[89.659,21.7532],[89.6989,21.7728],[89.6939,21.7978],[89.6808,21.804],[89.6257,21.8637],[89.6308,21.8916],[89.6463,21.9099],[89.6148,21.9467]]],[[[89.7145,21.9767],[89.6865,21.9926],[89.6931,21.9428],[89.6741,21.8993],[89.6585,21.8867],[89.6693,21.8701],[89.6661,21.8487],[89.7082,21.8342],[89.7407,21.8383],[89.7409,21.8659],[89.7111,21.9077],[89.7272,21.9286],[89.7109,21.9571],[89.7145,21.9767]]],[[[89.5736,21.9417],[89.5819,21.9541],[89.5616,21.9752],[89.5858,21.9863],[89.6032,22.0029],[89.6008,22.0251],[89.5685,22.0375],[89.5508,21.985],[89.5483,21.9619],[89.5736,21.9417]]],[[[89.8502,21.8732],[89.8654,21.8824],[89.8763,21.9102],[89.8607,21.9655],[89.8592,22.0148],[89.8373,21.9997],[89.8052,21.9893],[89.8365,21.9695],[89.8448,21.9596],[89.8432,21.9524],[89.8156,21.9374],[89.8123,21.9161],[89.8417,21.8996],[89.8482,21.8886],[89.8502,21.8732]]],[[[89.8174,22.0558],[89.7761,22.0888],[89.742,22.052],[89.7457,22.036],[89.7562,22.0367],[89.7605,22.0306],[89.7583,22.0253],[89.7555,22.0233],[89.7468,22.0202],[89.743,22.0159],[89.7504,22.0061],[89.7521,21.9972],[89.7407,21.9671],[89.7152,21.9611],[89.7331,21.9278],[89.7288,21.8984],[89.755,21.8525],[89.7705,21.8389],[89.8321,21.8485],[89.8365,21.8769],[89.845,21.8919],[89.8127,21.9127],[89.8084,21.9334],[89.843,21.9561],[89.8303,21.9707],[89.8036,21.9883],[89.8078,21.9944],[89.8361,22.0014],[89.8399,22.0211],[89.8174,22.0558]]],[[[89.6366,22.0975],[89.6118,22.0916],[89.5997,22.0855],[89.5972,22.0867],[89.597,22.091],[89.5691,22.0387],[89.6053,22.0238],[89.6086,22.01],[89.6044,22.0014],[89.5881,21.9856],[89.5629,21.9745],[89.5867,21.9503],[89.6259,21.9484],[89.6446,21.965],[89.6447,21.9826],[89.6252,21.979],[89.6238,22.0043],[89.6401,21.992],[89.6548,22.0041],[89.66,22.0186],[89.6521,22.0372],[89.6664,22.0551],[89.6366,22.0975]]],[[[89.747,22.134],[89.7129,22.1284],[89.7107,22.0739],[89.686,22.0597],[89.7053,22.0254],[89.7082,21.9864],[89.7239,21.9798],[89.7473,21.9972],[89.743,22.0119],[89.7419,22.0177],[89.7447,22.021],[89.7557,22.0241],[89.758,22.0323],[89.743,22.0354],[89.7391,22.0521],[89.7736,22.0871],[89.7551,22.1328],[89.747,22.134]]],[[[89.6186,22.1667],[89.6115,22.1564],[89.6142,22.1487],[89.6089,22.1428],[89.61,22.1321],[89.6037,22.1253],[89.6035,22.1132],[89.5984,22.0877],[89.622,22.0966],[89.6491,22.1004],[89.668,22.0558],[89.6546,22.0315],[89.6618,22.0188],[89.6554,22.0023],[89.6451,21.9932],[89.6485,21.969],[89.6285,21.9449],[89.6572,21.9028],[89.6698,21.9086],[89.6852,21.95],[89.6791,21.9958],[89.699,22.0325],[89.6786,22.0409],[89.6812,22.066],[89.6669,22.088],[89.6802,22.1321],[89.6717,22.1432],[89.665,22.1372],[89.6554,22.1411],[89.6341,22.1649],[89.6186,22.1667]]],[[[89.8893,22.1582],[89.8877,22.1652],[89.8874,22.1559],[89.8912,22.1501],[89.8893,22.1582]]],[[[89.6198,22.2776],[89.6155,22.2786],[89.6137,22.281],[89.6236,22.2929],[89.6126,22.2975],[89.5937,22.2759],[89.5994,22.2525],[89.5833,22.2184],[89.5541,22.2095],[89.559,22.1905],[89.5917,22.1501],[89.6043,22.1282],[89.6073,22.1425],[89.6129,22.1488],[89.6102,22.1593],[89.6134,22.1676],[89.6052,22.178],[89.6181,22.1985],[89.6035,22.2096],[89.6002,22.2263],[89.6196,22.2571],[89.6171,22.2695],[89.6198,22.2776]]],[[[89.801,22.9413],[89.8064,22.9592],[89.7927,22.9795],[89.7971,22.996],[89.757,23.0152],[89.7468,23.0486],[89.7288,23.0601],[89.73,23.0786],[89.6906,23.0987],[89.6726,23.1231],[89.6951,23.1271],[89.7132,23.1161],[89.7386,23.1296],[89.7302,23.1585],[89.7335,23.1865],[89.6966,23.1622],[89.679,23.1833],[89.688,23.2104],[89.6704,23.2442],[89.6418,23.2325],[89.6368,23.2616],[89.6529,23.2888],[89.6303,23.29],[89.6177,23.3044],[89.6033,23.3413],[89.616,23.3966],[89.6069,23.4208],[89.6076,23.463],[89.6006,23.4788],[89.5724,23.4981],[89.5003,23.5198],[89.5375,23.5361],[89.4995,23.5578],[89.4973,23.5791],[89.4704,23.5995],[89.4822,23.62],[89.47,23.6348],[89.4423,23.6388],[89.4395,23.6588],[89.412,23.6815],[89.3665,23.6641],[89.3217,23.7028],[89.3122,23.7276],[89.2982,23.736],[89.3158,23.748],[89.3302,23.7785],[89.3365,23.8287],[89.3513,23.8411],[89.3554,23.8859],[89.3124,23.8743],[89.3039,23.8888],[89.2625,23.9097],[89.2359,23.946],[89.237,23.9729],[89.2163,23.9885],[89.1777,23.9874],[89.1798,23.9633],[89.1483,23.9506],[89.127,23.9622],[89.0986,23.9599],[89.0728,23.9779],[89.0481,24.0196],[89.0265,24.0917],[89.0067,24.1181],[88.9499,24.1251],[88.9397,24.1321],[88.8848,24.1017],[88.8607,24.1118],[88.8437,24.1259],[88.8173,24.1211],[88.7873,24.133],[88.7572,24.1618],[88.7334,24.1939],[88.7315,24.1717],[88.7464,24.1472],[88.7085,24.1201],[88.7277,24.1009],[88.7268,24.0531],[88.7422,24.0334],[88.7288,23.9967],[88.7572,24.0067],[88.769,23.9842],[88.7396,23.9846],[88.7345,23.963],[88.7402,23.9373],[88.7354,23.9147],[88.7063,23.9164],[88.6675,23.8696],[88.5874,23.8716],[88.587,23.8295],[88.6009,23.8206],[88.5916,23.7976],[88.5714,23.7833],[88.5807,23.7593],[88.5647,23.7132],[88.5738,23.6668],[88.5622,23.6372],[88.5937,23.6409],[88.5938,23.617],[88.621,23.6028],[88.6381,23.6104],[88.6597,23.5492],[88.6739,23.5483],[88.6982,23.5159],[88.7241,23.5126],[88.7538,23.4791],[88.7705,23.4971],[88.7992,23.4912],[88.7873,23.4696],[88.7918,23.4478],[88.7641,23.4454],[88.7511,23.4029],[88.7648,23.3704],[88.7476,23.3624],[88.7353,23.3382],[88.7498,23.3214],[88.7301,23.3096],[88.6962,23.3022],[88.7188,23.2549],[88.7539,23.2403],[88.7744,23.2246],[88.8042,23.2188],[88.8136,23.2522],[88.8537,23.2365],[88.8904,23.2311],[88.9422,23.2064],[88.9755,23.2246],[88.9853,23.2],[88.939,23.1769],[88.8998,23.1122],[88.8684,23.1012],[88.861,23.0774],[88.8841,23.0406],[88.8722,23.0177],[88.855,22.9591],[88.8941,22.9525],[88.8906,22.9274],[88.9086,22.9192],[88.8982,22.8978],[88.9098,22.8798],[88.9494,22.8774],[88.9685,22.8441],[88.9594,22.808],[88.911,22.7579],[88.9279,22.7181],[88.9623,22.6951],[88.9449,22.6623],[88.9285,22.6524],[88.9347,22.6182],[88.9566,22.6064],[88.9387,22.5917],[88.9382,22.5614],[88.9614,22.55],[88.9804,22.4862],[88.9971,22.4697],[88.9909,22.4452],[89.0022,22.4289],[88.9749,22.4114],[88.9904,22.3877],[88.9855,22.3262],[89.0008,22.3237],[89.0241,22.2991],[88.9985,22.2824],[89.036,22.2544],[89.0418,22.2251],[89.0765,22.1894],[89.0709,22.1553],[89.0965,22.1621],[89.0988,22.1432],[89.0808,22.1323],[89.0478,22.097],[89.0557,22.0647],[89.0871,22.0247],[89.0939,22.0503],[89.1192,22.0702],[89.1389,22.068],[89.1503,22.0849],[89.1742,22.0723],[89.1633,22.0279],[89.187,22.0252],[89.2095,22.0051],[89.2454,22.0592],[89.2164,22.0888],[89.2328,22.1047],[89.2645,22.1126],[89.2645,22.1344],[89.2806,22.1607],[89.3101,22.1837],[89.3057,22.2145],[89.3317,22.2117],[89.3407,22.1533],[89.33,22.136],[89.3796,22.1162],[89.4052,22.1303],[89.4062,22.1522],[89.429,22.1665],[89.4143,22.1844],[89.4106,22.1954],[89.3904,22.1998],[89.4022,22.209],[89.392,22.2204],[89.3989,22.2261],[89.41,22.22],[89.4191,22.2267],[89.4086,22.2478],[89.427,22.2824],[89.4111,22.2938],[89.4069,22.311],[89.4242,22.3315],[89.426,22.3678],[89.4705,22.3126],[89.4948,22.266],[89.4759,22.2323],[89.5117,22.1301],[89.5175,22.1013],[89.5352,22.0826],[89.5345,22.0631],[89.5102,22.0166],[89.532,21.9947],[89.5416,22.0098],[89.5607,22.0724],[89.5839,22.1248],[89.5452,22.186],[89.5508,22.2174],[89.5867,22.2433],[89.5792,22.2597],[89.5864,22.2886],[89.6045,22.3055],[89.6246,22.344],[89.6288,22.3659],[89.6366,22.3427],[89.6149,22.3001],[89.6255,22.2944],[89.615,22.2802],[89.6249,22.2761],[89.6177,22.2683],[89.621,22.2576],[89.6153,22.2414],[89.6219,22.2156],[89.6196,22.1983],[89.6069,22.179],[89.6418,22.1619],[89.6633,22.1381],[89.6705,22.145],[89.6818,22.1331],[89.669,22.0878],[89.6847,22.0672],[89.7045,22.0716],[89.7089,22.1296],[89.6896,22.1786],[89.6871,22.1981],[89.6978,22.2127],[89.7148,22.1916],[89.6941,22.1832],[89.7127,22.1311],[89.7367,22.1338],[89.744,22.1385],[89.758,22.1347],[89.7755,22.0925],[89.801,22.0723],[89.8453,22.0638],[89.8769,22.097],[89.8849,22.141],[89.8859,22.1773],[89.8648,22.2257],[89.8579,22.2693],[89.8757,22.3201],[89.8954,22.3466],[89.9016,22.373],[89.8724,22.41],[89.8761,22.4276],[89.9109,22.4473],[89.9426,22.4568],[89.9307,22.4779],[89.8948,22.4757],[89.8821,22.4972],[89.8921,22.5069],[89.9647,22.4924],[89.9646,22.5077],[89.9318,22.5081],[89.9294,22.5226],[89.9542,22.554],[89.9624,22.5932],[89.92,22.6067],[89.927,22.6418],[89.9139,22.6597],[89.9356,22.6768],[89.9021,22.6954],[89.8682,22.6916],[89.8632,22.7029],[89.9046,22.7258],[89.932,22.7242],[89.9314,22.7524],[89.9155,22.7515],[89.9045,22.7726],[89.914,22.7998],[89.9458,22.8317],[89.9438,22.8565],[89.9216,22.8646],[89.9195,22.8811],[89.8578,22.8864],[89.865,22.9031],[89.801,22.9413]]],[[[89.3842,21.8729],[89.3647,21.847],[89.3485,21.8056],[89.3601,21.7518],[89.3835,21.7271],[89.4143,21.7258],[89.4728,21.7895],[89.4733,21.8078],[89.4484,21.8475],[89.4011,21.85],[89.3842,21.8729]]],[[[89.3358,21.7895],[89.3373,21.8171],[89.3503,21.8343],[89.3568,21.8804],[89.3145,21.8576],[89.3093,21.8414],[89.3358,21.7895]]],[[[89.4036,21.9217],[89.3814,21.9224],[89.382,21.879],[89.4036,21.8502],[89.4239,21.8652],[89.4456,21.869],[89.4501,21.8742],[89.4282,21.8848],[89.4202,21.8907],[89.4025,21.9141],[89.4036,21.9217]]],[[[89.4154,21.9861],[89.401,21.9808],[89.4021,21.9643],[89.3885,21.9591],[89.3808,21.964],[89.3746,21.953],[89.3969,21.9448],[89.4089,21.9265],[89.4034,21.9159],[89.4245,21.8899],[89.4477,21.8786],[89.4514,21.8746],[89.4507,21.871],[89.4387,21.8649],[89.4218,21.8623],[89.4284,21.8493],[89.4677,21.8575],[89.4713,21.9024],[89.4545,21.9019],[89.4387,21.9409],[89.4183,21.9653],[89.4154,21.9861]]],[[[89.489,21.998],[89.4712,22.0463],[89.4543,22.0506],[89.4423,22.0624],[89.4305,22.043],[89.4388,21.9901],[89.4219,21.9702],[89.4376,21.95],[89.4556,21.944],[89.4588,21.9082],[89.4986,21.9103],[89.5084,21.957],[89.489,21.998]]],[[[89.3902,22.0557],[89.3766,22.0635],[89.3537,22.0322],[89.3626,21.9597],[89.3855,21.9233],[89.3929,21.9441],[89.3755,21.9499],[89.3728,21.9559],[89.3798,21.9653],[89.4001,21.9645],[89.3991,21.9825],[89.4119,21.9886],[89.4328,21.9888],[89.4273,22.0265],[89.4018,22.0545],[89.3902,22.0557]]],[[[89.4958,22.0301],[89.517,22.0599],[89.5123,22.072],[89.4787,22.0503],[89.4958,22.0301]]],[[[89.473,22.0488],[89.5119,22.0767],[89.4892,22.0906],[89.4512,22.0712],[89.4539,22.0527],[89.473,22.0488]]],[[[89.5066,22.0923],[89.4957,22.1306],[89.4718,22.1219],[89.4894,22.0934],[89.5066,22.0923]]],[[[89.4431,22.1599],[89.4172,22.1589],[89.4042,22.1245],[89.3835,22.1162],[89.3893,22.0769],[89.3772,22.0661],[89.4261,22.0456],[89.4486,22.075],[89.4854,22.0899],[89.4589,22.1206],[89.4628,22.1431],[89.4431,22.1599]]],[[[89.3334,22.1244],[89.3272,22.1408],[89.3373,22.1515],[89.3318,22.1818],[89.2894,22.1505],[89.2806,22.1147],[89.3183,22.1085],[89.3445,22.0644],[89.3331,22.0546],[89.3044,22.0721],[89.2895,22.0615],[89.325,21.9928],[89.3496,21.9831],[89.342,22.019],[89.3473,22.0399],[89.3628,22.0521],[89.3824,22.0842],[89.3601,22.108],[89.3334,22.1244]]],[[[89.4575,22.2239],[89.4579,22.2466],[89.4196,22.226],[89.404,22.2136],[89.4029,22.2005],[89.4163,22.1937],[89.4179,22.1833],[89.4331,22.1664],[89.4622,22.1482],[89.4717,22.1677],[89.4591,22.1967],[89.4575,22.2239]]],[[[89.4574,22.2515],[89.4789,22.2725],[89.4488,22.3231],[89.4256,22.3271],[89.4097,22.3043],[89.4301,22.2896],[89.4198,22.2365],[89.4574,22.2515]]],[[[89.2462,21.6891],[89.2242,21.6986],[89.2091,21.6644],[89.2386,21.6533],[89.2774,21.6677],[89.2904,21.691],[89.257,21.6967],[89.2462,21.6891]]],[[[89.2757,21.7555],[89.2214,21.7471],[89.2359,21.6967],[89.2775,21.7031],[89.2885,21.7317],[89.2757,21.7555]]],[[[89.2121,21.8218],[89.1929,21.826],[89.1888,21.7971],[89.2186,21.7522],[89.2843,21.7669],[89.2818,21.7928],[89.2578,21.7945],[89.229,21.8219],[89.2121,21.8218]]],[[[89.1043,21.7811],[89.0843,21.7958],[89.0763,21.8284],[89.0836,21.857],[89.0573,21.8989],[89.059,21.9199],[89.0335,21.9149],[89.0338,21.8951],[89.0526,21.878],[89.0593,21.8343],[89.0449,21.7867],[89.0676,21.7734],[89.1071,21.7226],[89.1358,21.722],[89.1471,21.7404],[89.1304,21.7699],[89.1043,21.7811]]],[[[89.301,21.8381],[89.323,21.879],[89.3598,21.9001],[89.3482,21.9423],[89.314,21.9861],[89.2934,21.9634],[89.29,21.9405],[89.2969,21.9307],[89.3185,21.9208],[89.3211,21.917],[89.2908,21.879],[89.3047,21.8735],[89.3081,21.8696],[89.3072,21.8664],[89.2989,21.8574],[89.2941,21.8394],[89.301,21.8381]]],[[[89.1853,22.0219],[89.165,22.0207],[89.1673,21.9882],[89.1431,21.9617],[89.1428,21.9383],[89.1549,21.9251],[89.2016,21.9239],[89.2125,21.9041],[89.2015,21.8861],[89.194,21.829],[89.2492,21.8182],[89.2738,21.8539],[89.2694,21.8843],[89.285,21.9054],[89.2456,21.9154],[89.2407,21.9287],[89.2107,21.9352],[89.2046,21.9623],[89.242,21.9876],[89.1949,22.0026],[89.1853,22.0219]]],[[[89.1237,22.0462],[89.0957,22.0493],[89.0908,22.0142],[89.0972,21.9402],[89.1065,21.9592],[89.1093,21.9676],[89.1062,21.9759],[89.108,21.9782],[89.1154,21.9907],[89.1302,21.9981],[89.1237,22.0462]]],[[[89.1496,22.0281],[89.157,22.0563],[89.1495,22.0767],[89.1276,22.055],[89.1306,21.9964],[89.116,21.9879],[89.1209,21.979],[89.1078,21.9757],[89.1121,21.9668],[89.1083,21.9598],[89.1169,21.9511],[89.0815,21.9204],[89.0798,21.9037],[89.0985,21.8775],[89.1049,21.8467],[89.0991,21.8137],[89.1517,21.7949],[89.1676,21.8031],[89.1849,21.8373],[89.185,21.874],[89.2011,21.9127],[89.1541,21.9137],[89.1394,21.9224],[89.1311,21.9502],[89.1391,21.9737],[89.1608,21.9915],[89.1496,22.0281]]],[[[89.2614,22.0808],[89.2507,22.0498],[89.2193,22.0082],[89.2487,21.9913],[89.2488,21.9763],[89.2175,21.9594],[89.2601,21.9166],[89.279,21.92],[89.2962,21.902],[89.2778,21.8753],[89.2842,21.8427],[89.2931,21.8414],[89.2961,21.8572],[89.3064,21.8698],[89.2929,21.8749],[89.2898,21.8805],[89.3195,21.9185],[89.2991,21.9275],[89.2887,21.9395],[89.2885,21.9863],[89.3056,22.0006],[89.2773,22.0593],[89.2614,22.0808]]]]},"properties":{"division_bn":"খুলনা","division":"khulna"}},
{"type":"Feature","geometry":{"type":"MultiPolygon","coordinates":[[[[92.6139,21.8519],[92.6316,21.863],[92.6259,21.9089],[92.6035,21.9829],[92.5898,22.0708],[92.5752,22.1162],[92.5919,22.1395],[92.6109,22.1385],[92.6066,22.1661],[92.588,22.216],[92.5917,22.2393],[92.581,22.2693],[92.5865,22.2804],[92.5812,22.3218],[92.5547,22.4056],[92.5553,22.4289],[92.5443,22.4833],[92.5492,22.4957],[92.5398,22.5409],[92.5218,22.5603],[92.5381,22.5753],[92.5275,22.621],[92.526,22.6731],[92.5077,22.7369],[92.4739,22.7463],[92.4722,22.7958],[92.4552,22.8258],[92.4643,22.8547],[92.4209,22.9081],[92.3978,22.9294],[92.3765,22.9288],[92.3743,22.9701],[92.385,22.9928],[92.3795,23.0121],[92.3921,23.0539],[92.369,23.0952],[92.3579,23.1035],[92.3624,23.1651],[92.3507,23.2343],[92.4013,23.2367],[92.3857,23.3063],[92.3682,23.3256],[92.3757,23.3655],[92.3561,23.3727],[92.3463,23.4334],[92.327,23.4486],[92.3178,23.5262],[92.3081,23.5778],[92.2889,23.5983],[92.2893,23.6287],[92.2751,23.6501],[92.289,23.6801],[92.2893,23.702],[92.2578,23.7252],[92.2366,23.7135],[92.2257,23.6552],[92.2028,23.7059],[92.1777,23.7077],[92.1667,23.7403],[92.1442,23.7332],[92.1208,23.6928],[92.0997,23.6768],[92.0831,23.6801],[92.0738,23.6476],[92.0403,23.6488],[92,23.6713],[91.9781,23.7333],[91.9569,23.7342],[91.952,23.6988],[91.9396,23.6753],[91.9422,23.6349],[91.9518,23.6007],[91.9726,23.4926],[91.9385,23.4635],[91.9427,23.4352],[91.8996,23.4407],[91.8605,23.4053],[91.8407,23.399],[91.8376,23.3709],[91.8052,23.3329],[91.7832,23.3245],[91.7623,23.3031],[91.7598,23.2838],[91.777,23.2694],[91.791,23.2269],[91.7967,23.1868],[91.81,23.1652],[91.8081,23.1392],[91.8175,23.1021],[91.8337,23.0956],[91.8183,23.0729],[91.7745,23.0697],[91.7744,23.0386],[91.7438,23.0066],[91.7131,22.9887],[91.6817,22.9774],[91.6457,22.9768],[91.6169,22.9442],[91.5768,22.9654],[91.5425,22.9997],[91.5503,23.0385],[91.5304,23.0384],[91.5353,23.0635],[91.5112,23.1043],[91.5142,23.1227],[91.4909,23.1578],[91.5031,23.1922],[91.4844,23.2093],[91.4544,23.2576],[91.4174,23.2646],[91.3925,23.246],[91.3864,23.2277],[91.3847,23.1563],[91.4034,23.1139],[91.4002,23.0966],[91.4174,23.083],[91.4116,23.0625],[91.3958,23.0562],[91.3719,23.0694],[91.3469,23.1025],[91.3247,23.1688],[91.3236,23.2376],[91.3002,23.2924],[91.3095,23.314],[91.2898,23.3187],[91.2961,23.341],[91.2797,23.3768],[91.2764,23.4148],[91.2515,23.4538],[91.2522,23.4811],[91.2179,23.4996],[91.2006,23.5231],[91.2081,23.5432],[91.158,23.6219],[91.1564,23.6693],[91.1929,23.6546],[91.2049,23.6799],[91.1938,23.69],[91.1535,23.6894],[91.1491,23.7117],[91.1676,23.7498],[91.2103,23.7493],[91.2306,23.7651],[91.2271,23.7932],[91.254,23.8372],[91.2295,23.8807],[91.2284,23.8988],[91.2414,23.9228],[91.2717,23.9248],[91.2639,23.9444],[91.2715,23.963],[91.3034,23.988],[91.3031,23.9971],[91.3124,24.0287],[91.3041,24.0563],[91.2841,24.0608],[91.2931,24.0935],[91.2691,24.097],[91.2772,24.1815],[91.3148,24.1929],[91.2981,24.2137],[91.3284,24.2423],[91.3252,24.2604],[91.3017,24.2664],[91.2703,24.224],[91.1949,24.2398],[91.1736,24.2652],[91.1338,24.2431],[91.0851,24.2411],[91.0903,24.2193],[91.0399,24.2118],[90.9851,24.1526],[91.0095,24.1288],[91.0432,24.1109],[91.0537,24.0929],[91.0416,24.0659],[91.0034,24.0467],[90.986,24.0306],[90.9659,24.0054],[90.9727,23.9693],[90.9531,23.9539],[90.9504,23.9264],[90.9312,23.9114],[90.9092,23.868],[90.8948,23.8632],[90.8581,23.879],[90.8286,23.8642],[90.7811,23.8659],[90.7622,23.8601],[90.7662,23.8031],[90.7346,23.7628],[90.7231,23.7453],[90.7249,23.7184],[90.7411,23.6926],[90.7328,23.6671],[90.6979,23.6661],[90.6765,23.68],[90.6403,23.6748],[90.63,23.6208],[90.6531,23.6204],[90.6662,23.5963],[90.6459,23.5856],[90.6873,23.5574],[90.7108,23.5157],[90.6878,23.4925],[90.6413,23.5037],[90.5843,23.4806],[90.5705,23.4372],[90.5419,23.3992],[90.5387,23.3793],[90.5468,23.3674],[90.5761,23.358],[90.5907,23.3359],[90.6112,23.3475],[90.6393,23.3343],[90.6653,23.2754],[90.6603,23.2453],[90.6396,23.2318],[90.6382,23.1678],[90.6464,23.0643],[90.6465,22.9844],[90.669,22.9646],[90.7214,22.8801],[90.7361,22.8904],[90.7603,22.8712],[90.7815,22.8354],[90.7787,22.7845],[90.7958,22.7474],[90.8241,22.701],[90.8507,22.67],[90.8908,22.6602],[90.9454,22.6149],[91.0174,22.5682],[91.0554,22.5369],[91.0928,22.4664],[91.136,22.4429],[91.1604,22.4582],[91.1654,22.4795],[91.1942,22.4998],[91.1915,22.5201],[91.2289,22.5259],[91.288,22.6186],[91.2797,22.6512],[91.2638,22.6836],[91.2483,22.6802],[91.2427,22.7079],[91.2716,22.7081],[91.2989,22.7452],[91.3297,22.7529],[91.3686,22.7515],[91.3639,22.7699],[91.3312,22.7853],[91.3281,22.7975],[91.3311,22.8175],[91.332,22.8207],[91.3289,22.8483],[91.3298,22.8471],[91.331,22.8451],[91.3368,22.8448],[91.336,22.8212],[91.3354,22.8189],[91.3445,22.7891],[91.3768,22.7853],[91.4072,22.7654],[91.4241,22.7574],[91.4216,22.7844],[91.4071,22.8134],[91.4283,22.8395],[91.4412,22.8352],[91.4494,22.8279],[91.4562,22.8455],[91.4653,22.8549],[91.4655,22.8483],[91.4521,22.8282],[91.4419,22.8266],[91.4383,22.8348],[91.4306,22.8278],[91.422,22.8055],[91.4473,22.7845],[91.4503,22.7777],[91.4544,22.7569],[91.4763,22.7194],[91.5242,22.6904],[91.5816,22.6342],[91.5848,22.6158],[91.6387,22.569],[91.69,22.5141],[91.723,22.4646],[91.737,22.4291],[91.7371,22.4085],[91.768,22.3017],[91.7635,22.2781],[91.8123,22.2082],[91.8241,22.1567],[91.8421,22.1424],[91.8617,22.1498],[91.8643,22.083],[91.8784,22.0473],[91.8738,22.0029],[91.8904,21.948],[91.9089,21.9294],[91.9066,21.91],[91.9166,21.8584],[91.9089,21.8164],[91.8859,21.7677],[91.8718,21.7189],[91.859,21.6999],[91.857,21.6703],[91.892,21.6448],[91.8694,21.6054],[91.8826,21.597],[91.8615,21.5745],[91.8628,21.5433],[91.8505,21.5317],[91.8626,21.5057],[91.9168,21.47],[91.9394,21.4917],[91.9383,21.5031],[91.9768,21.5096],[91.9849,21.5961],[92.0017,21.516],[91.9796,21.474],[91.9489,21.4593],[91.9572,21.4425],[92.0003,21.3936],[92.0174,21.3682],[92.048,21.2862],[92.0438,21.2345],[92.0462,21.1846],[92.0592,21.1604],[92.1601,21.0434],[92.1882,21.0049],[92.2021,20.959],[92.2239,20.9134],[92.2744,20.84],[92.3116,20.7667],[92.3311,20.7465],[92.342,20.7581],[92.3204,20.8378],[92.2993,20.8894],[92.272,20.9157],[92.2635,20.9445],[92.2634,20.9784],[92.2512,21.0256],[92.265,21.0622],[92.2583,21.0788],[92.2335,21.0968],[92.2237,21.1199],[92.207,21.1189],[92.1993,21.1613],[92.1758,21.16],[92.1764,21.1843],[92.2012,21.2066],[92.2181,21.2319],[92.2197,21.2576],[92.1978,21.3196],[92.2115,21.3398],[92.2588,21.3622],[92.2558,21.3892],[92.2696,21.4004],[92.2691,21.4282],[92.3285,21.4191],[92.3435,21.4669],[92.381,21.4799],[92.4281,21.4236],[92.4388,21.3652],[92.4596,21.3691],[92.4991,21.3611],[92.5085,21.3773],[92.5611,21.3801],[92.5715,21.3244],[92.5962,21.2441],[92.6127,21.2468],[92.6295,21.2686],[92.6803,21.2856],[92.6511,21.3586],[92.6242,21.4755],[92.6152,21.5704],[92.609,21.5847],[92.611,21.623],[92.6018,21.6547],[92.6077,21.6813],[92.6012,21.7026],[92.6119,21.781],[92.6094,21.8171],[92.6139,21.8519]]],[[[90.6017,23.0099],[90.5896,23.0249],[90.5963,23.0164],[90.5976,23.0149],[90.6017,23.0099]]],[[[90.5656,23.0449],[90.5864,23.0672],[90.5678,23.0867],[90.5483,23.0597],[90.5656,23.0449]]],[[[90.5987,23.1102],[90.58,23.0866],[90.5878,23.0748],[90.5838,23.0519],[90.6094,23.0334],[90.62,23.064],[90.6156,23.093],[90.5987,23.1102]]],[[[91.3985,22.4226],[91.3531,22.3765],[91.3905,22.3735],[91.4089,22.3977],[91.3985,22.4226]]],[[[91.3326,22.5649],[91.3322,22.5657],[91.3497,22.5671],[91.3465,22.6094],[91.3111,22.6028],[91.2738,22.5548],[91.266,22.5201],[91.291,22.4839],[91.3258,22.501],[91.3399,22.5176],[91.3394,22.526],[91.3392,22.5301],[91.3509,22.5624],[91.3326,22.5649]]],[[[91.5297,22.3904],[91.5684,22.4094],[91.5715,22.4458],[91.5662,22.4686],[91.4986,22.5679],[91.4585,22.6087],[91.4204,22.5965],[91.4259,22.5692],[91.4199,22.5232],[91.4364,22.475],[91.4804,22.3998],[91.5084,22.3875],[91.5297,22.3904]]],[[[91.3384,22.7321],[91.3082,22.7266],[91.2865,22.6997],[91.296,22.673],[91.3182,22.6499],[91.3798,22.6271],[91.395,22.6317],[91.4104,22.6783],[91.4018,22.6926],[91.3604,22.7254],[91.3384,22.7321]]],[[[91.8702,21.9231],[91.8463,21.8994],[91.8408,21.8587],[91.8518,21.8279],[91.8421,21.8051],[91.8447,21.7754],[91.8331,21.7603],[91.8294,21.7232],[91.8434,21.7221],[91.8773,21.8214],[91.8946,21.8608],[91.8957,21.8844],[91.8798,21.9211],[91.8702,21.9231]]],[[[90.6439,22.8367],[90.6563,22.8448],[90.6514,22.8481],[90.6439,22.8367]]],[[[90.9321,22.497],[90.9339,22.4937],[90.9801,22.505],[90.9765,22.522],[90.9511,22.5473],[90.8938,22.5603],[90.9321,22.497]]],[[[91.0194,22.2928],[91.0137,22.2698],[91.0153,22.2426],[91.0291,22.2717],[91.0366,22.3203],[91.019,22.3323],[91.0194,22.2928]]],[[[90.9677,22.4276],[90.9696,22.4528],[90.9509,22.4645],[90.9677,22.4276]]],[[[91.031,22.0838],[90.9985,22.0997],[90.9783,22.0815],[90.9728,22.0515],[90.9908,22.0231],[91.0142,22.039],[91.0354,22.0425],[91.0479,22.0738],[91.031,22.0838]]],[[[91.0362,22.3376],[91.0541,22.3513],[91.0411,22.374],[91.0196,22.3523],[91.0362,22.3376]]],[[[91.1409,22.3732],[91.1316,22.3836],[91.07,22.407],[91.0749,22.3636],[91.0667,22.3526],[91.0703,22.2963],[91.0685,22.2421],[91.0539,22.1909],[91.0297,22.1442],[91.006,22.1204],[91.0059,22.1079],[91.0578,22.0792],[91.1649,22.1686],[91.169,22.1913],[91.1882,22.2328],[91.1901,22.2807],[91.1843,22.2965],[91.1899,22.3266],[91.1847,22.3654],[91.175,22.3838],[91.1409,22.3732]]],[[[91.0129,22.3605],[91.0304,22.3771],[91.0453,22.436],[91.0341,22.4507],[91.0019,22.4635],[90.9877,22.4356],[91.0038,22.3707],[91.0129,22.3605]]]]},"properties":{"division_bn":"চট্টগ্রাম","division":"chattogram"}},
{"type":"Feature","geometry":{"type":"MultiPolygon","coordinates":[[[[89.8912,22.1501],[89.8909,22.1583],[89.8877,22.1652],[89.8893,22.1582],[89.8912,22.1501]]],[[[90.1474,21.9748],[90.1537,21.9821],[90.1661,21.9834],[90.1726,21.9774],[90.2139,21.9858],[90.227,21.9803],[90.2568,21.9536],[90.2647,21.9764],[90.2838,21.9927],[90.311,21.9879],[90.3316,22.0469],[90.3439,22.0613],[90.3911,22.0892],[90.432,22.0779],[90.4651,22.1091],[90.5034,22.1665],[90.5184,22.1765],[90.5244,22.1986],[90.5552,22.2343],[90.5898,22.2613],[90.6144,22.3112],[90.6176,22.274],[90.6607,22.3175],[90.6607,22.3558],[90.6582,22.366],[90.6432,22.381],[90.6398,22.4182],[90.6446,22.4519],[90.6345,22.46],[90.6323,22.463],[90.6175,22.4758],[90.5777,22.5429],[90.5394,22.5633],[90.5113,22.5807],[90.5032,22.6548],[90.5039,22.7084],[90.4922,22.7253],[90.4371,22.7667],[90.4539,22.7744],[90.4758,22.7525],[90.4966,22.7805],[90.4714,22.8071],[90.4753,22.8654],[90.5292,22.8994],[90.5312,22.9201],[90.5162,22.9427],[90.496,22.9497],[90.4652,22.9808],[90.4159,22.9924],[90.4173,23.0072],[90.4072,23.0163],[90.4214,23.0401],[90.3834,23.0563],[90.3488,23.0567],[90.3158,23.0529],[90.3145,23.0353],[90.3294,23.0074],[90.3199,22.9815],[90.2664,22.9702],[90.2299,22.9795],[90.2367,23.0447],[90.2138,23.0699],[90.1948,23.0545],[90.165,23.0676],[90.1353,23.0498],[90.1267,23.0057],[90.0948,23.0068],[90.0688,22.9679],[90.0573,22.9326],[90.0348,22.9338],[90.0184,22.871],[89.9873,22.8658],[89.967,22.8537],[89.9438,22.8565],[89.9458,22.8317],[89.914,22.7998],[89.9045,22.7726],[89.9155,22.7515],[89.9314,22.7524],[89.932,22.7242],[89.9046,22.7258],[89.8632,22.7029],[89.8682,22.6916],[89.9021,22.6954],[89.9356,22.6768],[89.9139,22.6597],[89.927,22.6418],[89.92,22.6067],[89.9624,22.5932],[89.9542,22.554],[89.9294,22.5226],[89.9318,22.5081],[89.9646,22.5077],[89.9647,22.4924],[89.8921,22.5069],[89.8821,22.4972],[89.8948,22.4757],[89.9307,22.4779],[89.9426,22.4568],[89.9109,22.4473],[89.8761,22.4276],[89.8724,22.41],[89.9016,22.373],[89.8954,22.3466],[89.8757,22.3201],[89.8579,22.2693],[89.8648,22.2257],[89.8859,22.1773],[89.9072,22.1588],[89.9103,22.1083],[89.901,22.0724],[89.917,22.0226],[89.9358,21.9994],[89.9383,21.9589],[89.9745,21.9487],[89.9885,21.9658],[89.9719,22.0305],[89.9838,22.051],[90.0226,22.0811],[90.0129,22.1161],[90.0218,22.1371],[90.0562,22.164],[90.0325,22.1683],[90.0396,22.1874],[90.0669,22.1715],[90.0655,22.149],[90.0347,22.1285],[90.0303,22.1019],[90.033,22.061],[90.0168,22.0424],[89.987,22.0352],[89.9962,21.9999],[90.0178,21.9829],[90.0521,21.9812],[90.0646,22.024],[90.0858,22.0598],[90.1269,22.0899],[90.1403,22.0843],[90.0903,22.0415],[90.0753,22.0044],[90.0712,21.9697],[90.0286,21.9452],[90.0238,21.8844],[90.0461,21.8651],[90.0752,21.8613],[90.0903,21.8739],[90.1085,21.8958],[90.1103,21.8984],[90.1147,21.9258],[90.1333,21.9288],[90.1415,21.9357],[90.1352,21.9599],[90.1474,21.9748]]],[[[90.5468,22.5925],[90.5572,22.589],[90.5611,22.6006],[90.5424,22.6049],[90.5468,22.5925]]],[[[90.538,22.5899],[90.5274,22.6149],[90.5258,22.6407],[90.5203,22.6362],[90.5233,22.5784],[90.5346,22.5837],[90.538,22.5899]]],[[[90.5262,22.6425],[90.5663,22.6484],[90.5716,22.6675],[90.5602,22.6992],[90.5305,22.7057],[90.5189,22.6938],[90.5181,22.6557],[90.5262,22.6425]]],[[[90.5635,22.7057],[90.5774,22.6587],[90.5673,22.6453],[90.5367,22.6317],[90.5756,22.5991],[90.6028,22.5689],[90.6472,22.5611],[90.6669,22.547],[90.6674,22.5053],[90.6739,22.467],[90.6717,22.4241],[90.678,22.3922],[90.6745,22.3677],[90.6844,22.3318],[90.6773,22.2751],[90.6508,22.2161],[90.6215,22.1796],[90.6179,22.0969],[90.5975,22.0333],[90.6293,21.9941],[90.6846,21.9998],[90.7054,22.0115],[90.7408,22.0531],[90.781,22.0775],[90.8105,22.125],[90.8412,22.2659],[90.8361,22.3248],[90.8458,22.3812],[90.8645,22.4109],[90.8608,22.4322],[90.8312,22.4572],[90.8152,22.4798],[90.7803,22.5091],[90.7619,22.5442],[90.7591,22.5941],[90.7261,22.6202],[90.701,22.6563],[90.6989,22.6753],[90.6806,22.6983],[90.6627,22.7457],[90.6565,22.7825],[90.6238,22.8036],[90.5822,22.8034],[90.5413,22.783],[90.5603,22.7699],[90.5599,22.7688],[90.5428,22.7403],[90.5487,22.703],[90.5635,22.7057]]],[[[90.5247,22.7214],[90.5212,22.7499],[90.5293,22.7864],[90.5145,22.8015],[90.4849,22.7537],[90.4977,22.7312],[90.5247,22.7214]]],[[[90.6514,22.8481],[90.6213,22.8708],[90.5328,22.8887],[90.4909,22.8487],[90.494,22.8198],[90.5406,22.7944],[90.5712,22.81],[90.6024,22.8138],[90.6451,22.8068],[90.6708,22.8111],[90.6563,22.8448],[90.6439,22.8367],[90.6514,22.8481]]],[[[90.5969,22.911],[90.5657,22.9013],[90.57,22.887],[90.5969,22.8836],[90.5969,22.911]]],[[[90.6769,22.9314],[90.6663,22.9435],[90.6874,22.9184],[90.6769,22.9314]]],[[[90.4757,23.0076],[90.483,22.9748],[90.5149,22.9554],[90.534,22.9302],[90.5395,22.8969],[90.558,22.9003],[90.5882,22.921],[90.5869,22.9453],[90.543,22.9935],[90.5154,23.0316],[90.4898,23.0225],[90.4757,23.0076]]],[[[90.5656,23.0449],[90.5483,23.0597],[90.5415,23.0376],[90.5462,23.011],[90.5758,23.0033],[90.5656,23.0449]]],[[[90.7717,21.8559],[90.8105,21.8633],[90.832,21.8989],[90.8042,21.9153],[90.7896,21.9066],[90.7717,21.8559]]],[[[90.7287,21.8583],[90.742,21.867],[90.7613,21.9108],[90.7603,21.9267],[90.7341,21.9255],[90.7157,21.8991],[90.7119,21.8684],[90.7287,21.8583]]],[[[90.607,21.9238],[90.6168,21.9546],[90.61,21.9636],[90.607,21.9238]]],[[[90.6824,21.9761],[90.6333,21.9752],[90.626,21.9596],[90.6223,21.8907],[90.6474,21.8967],[90.68,21.9303],[90.7002,21.974],[90.6824,21.9761]]],[[[90.8681,21.977],[90.8543,21.9907],[90.8314,21.9653],[90.8382,21.9316],[90.8558,21.9235],[90.8681,21.977]]],[[[90.5825,22.0225],[90.5671,21.9927],[90.5898,21.9869],[90.6062,21.9776],[90.6203,21.996],[90.5943,22.0293],[90.5825,22.0225]]],[[[90.5856,22.1848],[90.5474,22.1557],[90.5386,22.1354],[90.4851,22.0737],[90.4847,22.0138],[90.5101,21.9627],[90.5312,21.9961],[90.5606,22.0239],[90.5786,22.0515],[90.5911,22.0608],[90.6078,22.1088],[90.5989,22.1648],[90.5856,22.1848]]],[[[90.6215,22.2435],[90.589,22.2407],[90.5868,22.189],[90.6279,22.2028],[90.6316,22.2426],[90.6215,22.2435]]],[[[90.8987,22.2074],[90.909,22.2468],[90.8938,22.2471],[90.8987,22.2074]]],[[[91.0194,22.2928],[91.019,22.3323],[91.0086,22.3202],[91.0194,22.2928]]],[[[90.9914,22.3291],[90.9698,22.3431],[90.972,22.3022],[90.9492,22.2292],[90.9194,22.1722],[90.9018,22.1268],[90.9016,22.0792],[90.9198,22.0749],[90.9334,22.1088],[90.9596,22.1453],[90.9891,22.1998],[91.0009,22.278],[90.9914,22.3291]]],[[[90.8914,22.3552],[90.8858,22.3959],[90.8649,22.3579],[90.8914,22.3552]]],[[[90.9902,22.391],[90.9723,22.4206],[90.9502,22.401],[90.9647,22.3655],[90.9911,22.3652],[90.9902,22.391]]],[[[90.9509,22.4645],[90.9336,22.4337],[90.9476,22.418],[90.9677,22.4276],[90.9509,22.4645]]],[[[90.8844,22.5171],[90.8609,22.526],[90.8631,22.4986],[90.8825,22.4907],[90.905,22.5023],[90.8844,22.5171]]],[[[90.6412,22.5531],[90.614,22.5515],[90.602,22.5353],[90.6278,22.4941],[90.649,22.4905],[90.6425,22.5241],[90.6543,22.5409],[90.6412,22.5531]]],[[[90.9321,22.497],[90.8938,22.5603],[90.8593,22.5796],[90.841,22.5642],[90.875,22.5309],[90.922,22.4943],[90.9339,22.4937],[90.9321,22.497]]],[[[90.7277,22.7288],[90.7053,22.7523],[90.6949,22.7249],[90.7205,22.6791],[90.7277,22.7288]]],[[[90.5873,21.9839],[90.5627,21.9859],[90.5298,21.957],[90.5088,21.9285],[90.5171,21.8915],[90.5568,21.8808],[90.577,21.8831],[90.6018,21.9676],[90.5873,21.9839]]],[[[90.5752,22.5705],[90.5747,22.5712],[90.5577,22.5883],[90.5519,22.5769],[90.5862,22.5474],[90.5752,22.5705]]],[[[90.5413,21.8536],[90.4978,21.8581],[90.481,21.8424],[90.4815,21.8147],[90.4997,21.8115],[90.5225,21.827],[90.5413,21.8536]]],[[[90.5531,21.8639],[90.5272,21.8871],[90.5036,21.8662],[90.5481,21.8574],[90.5531,21.8639]]],[[[90.3005,21.9537],[90.3043,21.9752],[90.2882,21.9892],[90.2545,21.9507],[90.2302,21.976],[90.2101,21.9836],[90.1742,21.9752],[90.1591,21.9812],[90.1367,21.9564],[90.1473,21.9357],[90.1163,21.9193],[90.1105,21.8785],[90.0828,21.8503],[90.0996,21.8235],[90.1283,21.8098],[90.1821,21.7974],[90.2195,21.8062],[90.2586,21.844],[90.2673,21.8757],[90.3005,21.9537]]],[[[90.4845,21.9876],[90.4788,22.0327],[90.4662,22.0543],[90.4191,22.0328],[90.3972,22.0098],[90.3561,21.9791],[90.3219,21.9058],[90.3068,21.8832],[90.3134,21.8545],[90.3266,21.8468],[90.358,21.8516],[90.375,21.8683],[90.3932,21.8707],[90.4086,21.894],[90.4645,21.9188],[90.4838,21.9368],[90.4979,21.9637],[90.4845,21.9876]]],[[[90.3993,22.0552],[90.4261,22.0758],[90.3925,22.0858],[90.3654,22.0614],[90.3402,22.0223],[90.3517,22.0104],[90.368,22.0496],[90.3993,22.0552]]]]},"properties":{"division_bn":"বরিশাল","division":"barishal"}},
{"type":"Feature","geometry":{"type":"Polygon","coordinates":[[[89.6478,25.0467],[89.6099,25.0509],[89.5641,25.0379],[89.5151,25.0404],[89.4909,25.0598],[89.4625,25.0545],[89.4521,25.0759],[89.3808,25.0603],[89.3601,25.0664],[89.3533,25.0891],[89.3368,25.1014],[89.3312,25.123],[89.3023,25.1197],[89.2801,25.0876],[89.2516,25.0973],[89.2313,25.1444],[89.1978,25.1708],[89.1946,25.2169],[89.2046,25.2285],[89.1675,25.2404],[89.1592,25.2529],[89.1229,25.253],[89.1062,25.2415],[89.029,25.2759],[89.0078,25.2677],[88.9839,25.2684],[88.9506,25.2441],[88.9578,25.2092],[88.9444,25.2062],[88.923,25.165],[88.9126,25.178],[88.8758,25.179],[88.8649,25.2007],[88.8304,25.2055],[88.8133,25.1744],[88.793,25.1727],[88.7333,25.2],[88.68,25.209],[88.6727,25.1985],[88.6202,25.2053],[88.5796,25.1769],[88.5599,25.191],[88.5006,25.2034],[88.4754,25.2135],[88.4634,25.195],[88.4421,25.1842],[88.4592,25.161],[88.4603,25.1386],[88.4414,25.1276],[88.4511,25.0753],[88.4349,25.0561],[88.4456,25.0275],[88.4369,25.0091],[88.4146,24.9953],[88.4167,24.9739],[88.3951,24.9647],[88.395,24.9417],[88.3561,24.9463],[88.3247,24.9185],[88.3468,24.8925],[88.3268,24.8705],[88.2968,24.8883],[88.2649,24.8928],[88.2591,24.9263],[88.2262,24.9597],[88.1702,24.9505],[88.1403,24.9142],[88.1659,24.8635],[88.1123,24.8142],[88.1061,24.7797],[88.089,24.783],[88.0657,24.7508],[88.0628,24.7216],[88.0086,24.6679],[88.0412,24.6434],[88.1056,24.5463],[88.1495,24.5039],[88.1734,24.4931],[88.1913,24.4686],[88.2104,24.4578],[88.2633,24.446],[88.2917,24.4164],[88.3283,24.385],[88.357,24.3737],[88.3894,24.3719],[88.4303,24.3838],[88.4463,24.3787],[88.5079,24.3426],[88.5271,24.3445],[88.5551,24.2934],[88.5676,24.3267],[88.588,24.312],[88.6237,24.3156],[88.6943,24.3156],[88.7247,24.2979],[88.7409,24.254],[88.7334,24.1939],[88.7572,24.1618],[88.7873,24.133],[88.8173,24.1211],[88.8437,24.1259],[88.8607,24.1118],[88.8848,24.1017],[88.9397,24.1321],[88.9499,24.1251],[89.0067,24.1181],[89.0265,24.0917],[89.0481,24.0196],[89.0728,23.9779],[89.0986,23.9599],[89.127,23.9622],[89.1483,23.9506],[89.1798,23.9633],[89.1777,23.9874],[89.2163,23.9885],[89.237,23.9729],[89.2359,23.946],[89.2625,23.9097],[89.3039,23.8888],[89.3124,23.8743],[89.3554,23.8859],[89.3646,23.9107],[89.391,23.9042],[89.4089,23.8817],[89.4686,23.8393],[89.515,23.8186],[89.5715,23.8081],[89.5839,23.8144],[89.6294,23.8092],[89.6957,23.8145],[89.7327,23.8354],[89.7122,23.8584],[89.6928,23.9427],[89.6914,23.9761],[89.6993,23.9973],[89.7216,24.0135],[89.7588,24.0222],[89.7852,24.0352],[89.817,24.0636],[89.8249,24.0883],[89.8174,24.1065],[89.8201,24.1405],[89.8026,24.1601],[89.783,24.2367],[89.7905,24.2634],[89.787,24.2886],[89.7742,24.3015],[89.7715,24.3303],[89.7517,24.3507],[89.766,24.3758],[89.7466,24.4305],[89.7552,24.4553],[89.7424,24.4706],[89.7582,24.4996],[89.7463,24.5373],[89.7891,24.5723],[89.765,24.6138],[89.785,24.6258],[89.7833,24.6692],[89.7992,24.68],[89.7724,24.724],[89.7909,24.7352],[89.78,24.7652],[89.7351,24.7657],[89.7153,24.7773],[89.7303,24.7984],[89.6849,24.8284],[89.6608,24.8881],[89.6834,24.9157],[89.6724,24.9285],[89.6765,24.9658],[89.6613,24.9874],[89.6609,25.0078],[89.6478,25.0467]]]},"properties":{"division_bn":"রাজশাহী","division":"rajshahi"}},
{"type":"Feature","geometry":{"type":"Polygon","coordinates":[[[89.688,23.2104],[89.679,23.1833],[89.6966,23.1622],[89.7335,23.1865],[89.7302,23.1585],[89.7386,23.1296],[89.7132,23.1161],[89.6951,23.1271],[89.6726,23.1231],[89.6906,23.0987],[89.73,23.0786],[89.7288,23.0601],[89.7468,23.0486],[89.757,23.0152],[89.7971,22.996],[89.7927,22.9795],[89.8064,22.9592],[89.801,22.9413],[89.865,22.9031],[89.8578,22.8864],[89.9195,22.8811],[89.9216,22.8646],[89.9438,22.8565],[89.967,22.8537],[89.9873,22.8658],[90.0184,22.871],[90.0348,22.9338],[90.0573,22.9326],[90.0688,22.9679],[90.0948,23.0068],[90.1267,23.0057],[90.1353,23.0498],[90.165,23.0676],[90.1948,23.0545],[90.2138,23.0699],[90.2367,23.0447],[90.2299,22.9795],[90.2664,22.9702],[90.3199,22.9815],[90.3294,23.0074],[90.3145,23.0353],[90.3158,23.0529],[90.3488,23.0567],[90.3834,23.0563],[90.4214,23.0401],[90.4072,23.0163],[90.4173,23.0072],[90.4574,23.0154],[90.4964,23.0393],[90.4978,23.0488],[90.4985,23.069],[90.5031,23.0885],[90.523,23.1113],[90.5563,23.1352],[90.5717,23.1524],[90.6078,23.2135],[90.6022,23.2241],[90.6012,23.2268],[90.5965,23.2301],[90.5456,23.2835],[90.5021,23.3019],[90.5119,23.3286],[90.5348,23.3392],[90.5907,23.3359],[90.5761,23.358],[90.5468,23.3674],[90.5387,23.3793],[90.5419,23.3992],[90.5705,23.4372],[90.5843,23.4806],[90.6413,23.5037],[90.6878,23.4925],[90.7108,23.5157],[90.6873,23.5574],[90.6459,23.5856],[90.6662,23.5963],[90.6531,23.6204],[90.63,23.6208],[90.6403,23.6748],[90.6765,23.68],[90.6979,23.6661],[90.7328,23.6671],[90.7411,23.6926],[90.7249,23.7184],[90.7231,23.7453],[90.7346,23.7628],[90.7662,23.8031],[90.7622,23.8601],[90.7811,23.8659],[90.8286,23.8642],[90.8581,23.879],[90.8948,23.8632],[90.9092,23.868],[90.9312,23.9114],[90.9504,23.9264],[90.9531,23.9539],[90.9727,23.9693],[90.9659,24.0054],[90.986,24.0306],[91.0034,24.0467],[91.0416,24.0659],[91.0537,24.0929],[91.0432,24.1109],[91.0095,24.1288],[90.9851,24.1526],[91.0399,24.2118],[91.0903,24.2193],[91.0851,24.2411],[91.1338,24.2431],[91.1736,24.2652],[91.1931,24.2798],[91.1851,24.2928],[91.1596,24.2929],[91.1766,24.321],[91.2283,24.3151],[91.2346,24.3326],[91.2126,24.3587],[91.2426,24.3795],[91.2375,24.4068],[91.237,24.4607],[91.2262,24.4825],[91.193,24.4813],[91.191,24.5008],[91.2109,24.5209],[91.234,24.569],[91.206,24.577],[91.1952,24.6311],[91.1749,24.6431],[91.1273,24.6292],[91.1289,24.61],[91.0931,24.6016],[91.0732,24.619],[91.0456,24.6102],[91.03,24.63],[91.0102,24.6057],[90.9769,24.5995],[90.8569,24.5995],[90.8398,24.5799],[90.82,24.588],[90.7942,24.508],[90.7586,24.511],[90.7296,24.4767],[90.688,24.5091],[90.6801,24.4679],[90.6319,24.4787],[90.6159,24.4952],[90.5882,24.4969],[90.5738,24.4821],[90.5874,24.4481],[90.6336,24.4351],[90.646,24.4165],[90.6319,24.3585],[90.6186,24.3423],[90.6408,24.3065],[90.6493,24.258],[90.6218,24.2686],[90.5796,24.2465],[90.5442,24.2661],[90.5211,24.2877],[90.512,24.3118],[90.4876,24.3142],[90.458,24.3389],[90.4264,24.3305],[90.4281,24.3102],[90.4024,24.2827],[90.3625,24.281],[90.3254,24.2992],[90.2905,24.2778],[90.265,24.2887],[90.2567,24.3104],[90.2288,24.3476],[90.249,24.4153],[90.2293,24.4199],[90.2112,24.4616],[90.2273,24.4832],[90.2089,24.5087],[90.1743,24.5178],[90.168,24.5355],[90.1247,24.5963],[90.1442,24.6236],[90.1479,24.65],[90.1266,24.7179],[90.1273,24.7385],[90.0904,24.7372],[90.0966,24.7535],[90.0758,24.7879],[90.0488,24.774],[90.0322,24.777],[90.0204,24.7547],[89.9717,24.7242],[89.958,24.7443],[89.9354,24.7555],[89.9074,24.7345],[89.8782,24.7315],[89.88,24.7083],[89.8941,24.6963],[89.8781,24.679],[89.8421,24.6147],[89.8087,24.5677],[89.7891,24.5723],[89.7463,24.5373],[89.7582,24.4996],[89.7424,24.4706],[89.7552,24.4553],[89.7466,24.4305],[89.766,24.3758],[89.7517,24.3507],[89.7715,24.3303],[89.7742,24.3015],[89.787,24.2886],[89.7905,24.2634],[89.783,24.2367],[89.8026,24.1601],[89.8201,24.1405],[89.8174,24.1065],[89.8249,24.0883],[89.817,24.0636],[89.7852,24.0352],[89.7588,24.0222],[89.7216,24.0135],[89.6993,23.9973],[89.6914,23.9761],[89.6928,23.9427],[89.7122,23.8584],[89.7327,23.8354],[89.6957,23.8145],[89.6294,23.8092],[89.5839,23.8144],[89.5715,23.8081],[89.515,23.8186],[89.4686,23.8393],[89.4089,23.8817],[89.391,23.9042],[89.3646,23.9107],[89.3554,23.8859],[89.3513,23.8411],[89.3365,23.8287],[89.3302,23.7785],[89.3158,23.748],[89.2982,23.736],[89.3122,23.7276],[89.3217,23.7028],[89.3665,23.6641],[89.412,23.6815],[89.4395,23.6588],[89.4423,23.6388],[89.47,23.6348],[89.4822,23.62],[89.4704,23.5995],[89.4973,23.5791],[89.4995,23.5578],[89.5375,23.5361],[89.5003,23.5198],[89.5724,23.4981],[89.6006,23.4788],[89.6076,23.463],[89.6069,23.4208],[89.616,23.3966],[89.6033,23.3413],[89.6177,23.3044],[89.6303,23.29],[89.6529,23.2888],[89.6368,23.2616],[89.6418,23.2325],[89.6704,23.2442],[89.688,23.2104]]]},"properties":{"division_bn":"ঢাকা","division":"dhaka"}},
{"type":"Feature","geometry":{"type":"MultiPolygon","coordinates":[[[[89.2046,25.2285],[89.1946,25.2169],[89.1978,25.1708],[89.2313,25.1444],[89.2516,25.0973],[89.2801,25.0876],[89.3023,25.1197],[89.3312,25.123],[89.3368,25.1014],[89.3533,25.0891],[89.3601,25.0664],[89.3808,25.0603],[89.4521,25.0759],[89.4625,25.0545],[89.4909,25.0598],[89.5151,25.0404],[89.5641,25.0379],[89.6099,25.0509],[89.6478,25.0467],[89.6531,25.078],[89.6529,25.1416],[89.672,25.1697],[89.7012,25.2322],[89.7489,25.2364],[89.7449,25.2987],[89.7316,25.344],[89.7218,25.3563],[89.7444,25.374],[89.7803,25.388],[89.7865,25.4285],[89.8256,25.4152],[89.8327,25.4389],[89.8523,25.4664],[89.8492,25.4925],[89.8602,25.5177],[89.8512,25.5387],[89.8659,25.5463],[89.8824,25.6173],[89.871,25.6626],[89.835,25.7159],[89.829,25.7425],[89.8413,25.7591],[89.8258,25.8112],[89.8352,25.8408],[89.8325,25.8707],[89.8785,25.9243],[89.887,25.9453],[89.8253,25.9456],[89.843,25.964],[89.8718,25.9742],[89.8476,26.0008],[89.8219,26.01],[89.7987,26.0597],[89.7831,26.1061],[89.7578,26.1151],[89.7631,26.1372],[89.7436,26.1594],[89.6972,26.1586],[89.6978,26.17],[89.6734,26.2058],[89.6338,26.2303],[89.6394,26.1998],[89.6321,26.1808],[89.6128,26.178],[89.6024,26.1268],[89.6274,26.1141],[89.6367,26.0754],[89.5787,26.0264],[89.5862,25.9943],[89.5778,25.9694],[89.5409,25.9696],[89.5377,25.9943],[89.5212,26.0087],[89.4812,25.9975],[89.4616,25.9985],[89.4274,26.0132],[89.4295,26.0435],[89.4063,26.0407],[89.3858,26.0109],[89.3464,26.0116],[89.3279,26.0333],[89.2544,26.0642],[89.2625,26.0941],[89.2197,26.1266],[89.1929,26.1239],[89.1553,26.1387],[89.1355,26.1874],[89.1485,26.2064],[89.1252,26.2636],[89.1049,26.2756],[89.1316,26.2974],[89.1362,26.3202],[89.0936,26.3259],[89.0983,26.359],[89.0858,26.3629],[89.0844,26.3984],[89.0394,26.4003],[89.0059,26.4215],[88.9829,26.4211],[88.9832,26.4466],[88.9461,26.448],[88.9281,26.433],[88.9265,26.4069],[88.911,26.3682],[88.9473,26.3607],[88.9774,26.3471],[88.994,26.32],[88.9849,26.3006],[89.0209,26.2973],[89.0625,26.2596],[89.046,26.2408],[89.0189,26.2422],[88.9531,26.2421],[88.9262,26.2839],[88.8758,26.2866],[88.8613,26.2727],[88.8716,26.2342],[88.8385,26.2322],[88.8135,26.2547],[88.8132,26.2885],[88.7935,26.3101],[88.7593,26.3041],[88.7466,26.3111],[88.7219,26.2829],[88.6676,26.272],[88.6932,26.3141],[88.7465,26.3225],[88.7439,26.3488],[88.6951,26.3442],[88.6769,26.3991],[88.6498,26.4297],[88.6282,26.4411],[88.6229,26.4712],[88.5958,26.4693],[88.5946,26.4523],[88.56,26.4571],[88.5565,26.4849],[88.5265,26.4815],[88.508,26.5163],[88.4897,26.5104],[88.4835,26.5411],[88.4482,26.5354],[88.4312,26.5502],[88.416,26.6317],[88.3984,26.6259],[88.3796,26.5983],[88.3708,26.5607],[88.3574,26.5427],[88.3487,26.5076],[88.3321,26.4932],[88.3533,26.4514],[88.3605,26.4847],[88.4012,26.4832],[88.4153,26.4693],[88.4852,26.4603],[88.4962,26.4372],[88.4961,26.4116],[88.5156,26.3856],[88.5185,26.3519],[88.4884,26.3489],[88.4465,26.365],[88.4355,26.3359],[88.4138,26.3374],[88.3983,26.3171],[88.3496,26.2823],[88.3483,26.255],[88.3592,26.2429],[88.3478,26.222],[88.3214,26.2044],[88.2592,26.1866],[88.2418,26.1892],[88.2215,26.1663],[88.1771,26.1481],[88.1782,26.125],[88.1583,26.095],[88.1855,26.0634],[88.1727,26.0316],[88.1296,25.997],[88.1111,25.9332],[88.0858,25.9157],[88.0939,25.8744],[88.111,25.8641],[88.107,25.8152],[88.1144,25.798],[88.1387,25.7967],[88.1521,25.7758],[88.1934,25.8016],[88.2283,25.7967],[88.249,25.8122],[88.2695,25.8082],[88.2685,25.7808],[88.3163,25.7532],[88.3746,25.7124],[88.4017,25.6727],[88.4271,25.6697],[88.4538,25.665],[88.4546,25.6293],[88.4443,25.597],[88.4999,25.5841],[88.5003,25.5509],[88.5331,25.5422],[88.548,25.5182],[88.6224,25.497],[88.6447,25.4987],[88.663,25.4738],[88.7103,25.4807],[88.7075,25.4999],[88.7421,25.5051],[88.7592,25.524],[88.808,25.5128],[88.8137,25.488],[88.8296,25.4904],[88.8373,25.4523],[88.8265,25.4449],[88.8394,25.3739],[88.8757,25.3374],[88.9064,25.3379],[88.9151,25.3126],[88.9392,25.3008],[88.9826,25.3032],[89.0093,25.2975],[89.0078,25.2677],[89.029,25.2759],[89.1062,25.2415],[89.1229,25.253],[89.1592,25.2529],[89.1675,25.2404],[89.2046,25.2285]]],[[[89.142,26.2695],[89.1426,26.2418],[89.1698,26.2446],[89.1716,26.2633],[89.142,26.2695]]],[[[88.9278,26.3355],[88.9181,26.3257],[88.9545,26.2747],[88.9608,26.295],[88.9384,26.335],[88.9278,26.3355]]]]},"properties":{"division_bn":"রংপুর","division":"rangpur"}},
{"type":"Feature","geometry":{"type":"Polygon","coordinates":[[[91.3031,23.9971],[91.3412,23.9821],[91.3627,23.9833],[91.3908,24.0259],[91.3965,24.0498],[91.3771,24.08],[91.3745,24.1079],[91.4015,24.1116],[91.4308,24.1001],[91.4828,24.098],[91.4976,24.0874],[91.5442,24.0761],[91.5823,24.0736],[91.5984,24.0868],[91.6379,24.1031],[91.6344,24.1382],[91.6452,24.174],[91.6601,24.1897],[91.6805,24.1892],[91.6844,24.1663],[91.7283,24.1434],[91.7598,24.1455],[91.745,24.2471],[91.7914,24.2199],[91.8238,24.2102],[91.843,24.2204],[91.851,24.182],[91.8739,24.1746],[91.8786,24.1463],[91.8903,24.1366],[91.9127,24.1547],[91.9113,24.1683],[91.9407,24.2682],[91.9199,24.3376],[91.9567,24.3568],[91.977,24.3276],[91.9968,24.3369],[91.9781,24.3575],[91.9704,24.3847],[92.044,24.375],[92.0961,24.3729],[92.1161,24.3809],[92.1314,24.4068],[92.1675,24.4272],[92.1504,24.4954],[92.1618,24.5276],[92.1925,24.5183],[92.2125,24.5038],[92.231,24.531],[92.2353,24.5976],[92.2596,24.6874],[92.2959,24.7366],[92.2812,24.7424],[92.2878,24.7793],[92.273,24.8003],[92.2692,24.83],[92.2508,24.8362],[92.2383,24.8684],[92.2475,24.9095],[92.3072,24.9017],[92.3397,24.8783],[92.3754,24.8745],[92.3859,24.8533],[92.4072,24.8601],[92.4364,24.8572],[92.4452,24.8731],[92.4762,24.8683],[92.4919,24.878],[92.4967,24.9022],[92.4839,24.9286],[92.4878,24.9442],[92.4496,24.9387],[92.4478,24.9658],[92.4194,24.9676],[92.4252,25.0297],[92.3414,25.0487],[92.3485,25.0736],[92.3221,25.0783],[92.3105,25.0692],[92.2543,25.0869],[92.2069,25.1088],[92.1914,25.1354],[92.1709,25.1287],[92.1358,25.1389],[92.1396,25.1547],[92.1044,25.1747],[92.0618,25.1871],[92.0034,25.1862],[91.9853,25.1729],[91.9145,25.1814],[91.8497,25.1733],[91.8271,25.1779],[91.7497,25.1594],[91.7354,25.1498],[91.7037,25.151],[91.6916,25.1372],[91.668,25.1378],[91.642,25.1232],[91.6016,25.1437],[91.604,25.1676],[91.577,25.1721],[91.5571,25.1498],[91.5095,25.1476],[91.4996,25.1355],[91.3985,25.1646],[91.3371,25.1737],[91.2921,25.1934],[91.2597,25.2011],[91.2302,25.197],[91.1946,25.2019],[91.1252,25.1941],[91.0696,25.1985],[91.0383,25.1864],[90.9648,25.1719],[90.9703,25.1606],[90.9492,25.1373],[90.9527,25.1065],[90.9295,25.0573],[90.9389,25.0458],[90.9403,24.9861],[90.9732,24.9584],[90.9553,24.9395],[90.9533,24.9192],[90.9798,24.9172],[91.0156,24.8986],[91.0784,24.9],[91.1089,24.8716],[91.1203,24.8372],[91.1162,24.8065],[91.1426,24.8006],[91.153,24.8375],[91.1707,24.827],[91.164,24.8018],[91.1712,24.7799],[91.1352,24.7572],[91.1587,24.7249],[91.2124,24.7131],[91.2409,24.6916],[91.23,24.6547],[91.2099,24.6525],[91.1952,24.6311],[91.206,24.577],[91.234,24.569],[91.2109,24.5209],[91.191,24.5008],[91.193,24.4813],[91.2262,24.4825],[91.237,24.4607],[91.2375,24.4068],[91.2426,24.3795],[91.2126,24.3587],[91.2346,24.3326],[91.2283,24.3151],[91.1766,24.321],[91.1596,24.2929],[91.1851,24.2928],[91.1931,24.2798],[91.1736,24.2652],[91.1949,24.2398],[91.2703,24.224],[91.3017,24.2664],[91.3252,24.2604],[91.3284,24.2423],[91.2981,24.2137],[91.3148,24.1929],[91.2772,24.1815],[91.2691,24.097],[91.2931,24.0935],[91.2841,24.0608],[91.3041,24.0563],[91.3124,24.0287],[91.3031,23.9971]]]},"properties":{"division_bn":"সিলেট","division":"sylhet"}},
{"type":"Feature","geometry":{"type":"Polygon","coordinates":[[[89.7153,24.7773],[89.7351,24.7657],[89.78,24.7652],[89.7909,24.7352],[89.7724,24.724],[89.7992,24.68],[89.7833,24.6692],[89.785,24.6258],[89.765,24.6138],[89.7891,24.5723],[89.8087,24.5677],[89.8421,24.6147],[89.8781,24.679],[89.8941,24.6963],[89.88,24.7083],[89.8782,24.7315],[89.9074,24.7345],[89.9354,24.7555],[89.958,24.7443],[89.9717,24.7242],[90.0204,24.7547],[90.0322,24.777],[90.0488,24.774],[90.0758,24.7879],[90.0966,24.7535],[90.0904,24.7372],[90.1273,24.7385],[90.1266,24.7179],[90.1479,24.65],[90.1442,24.6236],[90.1247,24.5963],[90.168,24.5355],[90.1743,24.5178],[90.2089,24.5087],[90.2273,24.4832],[90.2112,24.4616],[90.2293,24.4199],[90.249,24.4153],[90.2288,24.3476],[90.2567,24.3104],[90.265,24.2887],[90.2905,24.2778],[90.3254,24.2992],[90.3625,24.281],[90.4024,24.2827],[90.4281,24.3102],[90.4264,24.3305],[90.458,24.3389],[90.4876,24.3142],[90.512,24.3118],[90.5211,24.2877],[90.5442,24.2661],[90.5796,24.2465],[90.6218,24.2686],[90.6493,24.258],[90.6408,24.3065],[90.6186,24.3423],[90.6319,24.3585],[90.646,24.4165],[90.6336,24.4351],[90.5874,24.4481],[90.5738,24.4821],[90.5882,24.4969],[90.6159,24.4952],[90.6319,24.4787],[90.6801,24.4679],[90.688,24.5091],[90.7296,24.4767],[90.7586,24.511],[90.7942,24.508],[90.82,24.588],[90.8398,24.5799],[90.8569,24.5995],[90.9769,24.5995],[91.0102,24.6057],[91.03,24.63],[91.0456,24.6102],[91.0732,24.619],[91.0931,24.6016],[91.1289,24.61],[91.1273,24.6292],[91.1749,24.6431],[91.1952,24.6311],[91.2099,24.6525],[91.23,24.6547],[91.2409,24.6916],[91.2124,24.7131],[91.1587,24.7249],[91.1352,24.7572],[91.1712,24.7799],[91.164,24.8018],[91.1707,24.827],[91.153,24.8375],[91.1426,24.8006],[91.1162,24.8065],[91.1203,24.8372],[91.1089,24.8716],[91.0784,24.9],[91.0156,24.8986],[90.9798,24.9172],[90.9533,24.9192],[90.9553,24.9395],[90.9732,24.9584],[90.9403,24.9861],[90.9389,25.0458],[90.9295,25.0573],[90.9527,25.1065],[90.9492,25.1373],[90.9703,25.1606],[90.9648,25.1719],[90.9279,25.1623],[90.8839,25.1668],[90.8498,25.1577],[90.8058,25.1661],[90.7946,25.1814],[90.7691,25.1827],[90.7392,25.1578],[90.708,25.1667],[90.6985,25.1569],[90.658,25.1853],[90.614,25.1742],[90.5259,25.1739],[90.4508,25.1525],[90.441,25.1446],[90.4044,25.16],[90.3705,25.1629],[90.3302,25.1939],[90.3104,25.1889],[90.2642,25.1964],[90.1959,25.2111],[90.1714,25.2232],[90.1181,25.2236],[90.0812,25.2405],[90.0563,25.2605],[90.0337,25.2624],[90.0042,25.2806],[89.9807,25.281],[89.9666,25.3038],[89.9482,25.2937],[89.9091,25.3082],[89.8765,25.2854],[89.8316,25.2957],[89.8405,25.319],[89.8214,25.3556],[89.8256,25.4152],[89.7865,25.4285],[89.7803,25.388],[89.7444,25.374],[89.7218,25.3563],[89.7316,25.344],[89.7449,25.2987],[89.7489,25.2364],[89.7012,25.2322],[89.672,25.1697],[89.6529,25.1416],[89.6531,25.078],[89.6478,25.0467],[89.6609,25.0078],[89.6613,24.9874],[89.6765,24.9658],[89.6724,24.9285],[89.6834,24.9157],[89.6608,24.8881],[89.6849,24.8284],[89.7303,24.7984],[89.7153,24.7773]]]},"properties":{"division_bn":"ময়মনসিংহ","division":"mymensingh"}}
]}